{
    "satellites": [
        {
            "name": "starlink351",
            "title": "Starlink-351 (G17-34)",
            "tle": [
                "1 72001C 26026B   26042.76008843  .01552400  00000+0  16876-2 0    05",
                "2 72001  97.2896  95.6190 0010944 247.5816 132.5657 16.09209358    17"
            ],
            "stdMag": 5,
            "noradId": "72001",
            "tleUrl": "http://celestrak.org/NORAD/elements/supplemental/sup-gp.php?FILE=starlink-g17-34&FORMAT=tle",
            "launchDate": "2026-02-11T17:11:29.000Z",
            "active": true
        },
        {
            "name": "starlink350",
            "title": "Starlink-350 (G17-33) (new)",
            "tle": [
                "1 71654C 26025Y   26042.09076389 -.00629150  00000+0 -56307-3 0   421",
                "2 71654  97.2827 151.9356 0001238  62.4556   8.9804 16.13471666    13"
            ],
            "stdMag": 5,
            "noradId": "71654",
            "tleUrl": "http://celestrak.org/NORAD/elements/supplemental/sup-gp.php?FILE=starlink&FORMAT=tle",
            "launchDate": "2026-02-07T20:58:09.000Z",
            "active": true,
            "batch": [
                {
                    "noradId": "71654",
                    "tle": [
                        "1 71654C 26025Y   26042.09076389 -.00629150  00000+0 -56307-3 0   421",
                        "2 71654  97.2827 151.9356 0001238  62.4556   8.9804 16.13471666    13"
                    ]
                },
                {
                    "noradId": "71655",
                    "tle": [
                        "1 71655C 26025Z   26042.09006944 -.00636040  00000+0 -57390-3 0   421",
                        "2 71655  97.2827 151.9347 0001810  73.9113 352.8930 16.13355954    18"
                    ]
                },
                {
                    "noradId": "71653",
                    "tle": [
                        "1 71653C 26025X   26042.07409722 -.00668550  00000+0 -61316-3 0   422",
                        "2 71653  97.2827 151.9162 0001308  64.4895 268.4365 16.13149798    16"
                    ]
                },
                {
                    "noradId": "71652",
                    "tle": [
                        "1 71652C 26025W   26042.06576389 -.00651490  00000+0 -59224-3 0   424",
                        "2 71652  97.2827 151.9073 0001752  85.2262 199.8934 16.13262102    12"
                    ]
                },
                {
                    "noradId": "71656",
                    "tle": [
                        "1 71656C 26025AA  26042.09631944 -.00676080  00000+0 -62718-3 0   424",
                        "2 71656  97.2828 151.9407 0001452  48.7224  52.5614 16.12987706    10"
                    ]
                },
                {
                    "noradId": "71650",
                    "tle": [
                        "1 71650C 26025U   26042.02826389 -.00693500  00000+0 -65660-3 0   425",
                        "2 71650  97.2829 151.8645 0001164  50.2432  14.3186 16.12702041    14"
                    ]
                },
                {
                    "noradId": "71649",
                    "tle": [
                        "1 71649C 26025T   26042.09076389 -.00723880  00000+0 -69793-3 0   423",
                        "2 71649  97.2829 151.9334 0001298  33.0588  33.5096 16.12461205    14"
                    ]
                },
                {
                    "noradId": "71651",
                    "tle": [
                        "1 71651C 26025V   26042.03104167 -.00694200  00000+0 -64546-3 0   420",
                        "2 71651  97.2827 151.8681 0001522  49.6798  32.2168 16.12972401    16"
                    ]
                },
                {
                    "noradId": "71648",
                    "tle": [
                        "1 71648C 26025S   26042.08729167 -.00696810  00000+0 -65838-3 0   428",
                        "2 71648  97.2828 151.9302 0001842  78.0826 329.5764 16.12733710    19"
                    ]
                },
                {
                    "noradId": "71647",
                    "tle": [
                        "1 71647C 26025R   26042.08937500 -.00736480  00000+0 -71874-3 0   424",
                        "2 71647  97.2829 151.9315 0001470  65.4150 352.4302 16.12291389    14"
                    ]
                },
                {
                    "noradId": "71645",
                    "tle": [
                        "1 71645C 26025P   26042.04631944 -.00753690  00000+0 -73829-3 0   425",
                        "2 71645  97.2831 151.8838 0001490  75.8665  91.6544 16.12252859    11"
                    ]
                },
                {
                    "noradId": "71646",
                    "tle": [
                        "1 71646C 26025Q   26042.09215278 -.00763840  00000+0 -76508-3 0   424",
                        "2 71646  97.2830 151.9338 0001890  66.4265   5.7344 16.11925126    10"
                    ]
                },
                {
                    "noradId": "71644",
                    "tle": [
                        "1 71644C 26025N   26042.09076389 -.00754210  00000+0 -74950-3 0   420",
                        "2 71644  97.2832 151.9328 0001633  46.6436  18.0492 16.12035608    13"
                    ]
                },
                {
                    "noradId": "71643",
                    "tle": [
                        "1 71643C 26025M   26042.09076389 -.00778360  00000+0 -78810-3 0   420",
                        "2 71643  97.2833 151.9323 0001338  55.7506   7.7159 16.11778651    15"
                    ]
                },
                {
                    "noradId": "71642",
                    "tle": [
                        "1 71642C 26025L   26042.09284722 -.00787640  00000+0 -80506-3 0   427",
                        "2 71642  97.2833 151.9344 0001538  45.5114  29.4206 16.11643908    11"
                    ]
                },
                {
                    "noradId": "71641",
                    "tle": [
                        "1 71641C 26025K   26042.08798611 -.00795310  00000+0 -81809-3 0   422",
                        "2 71641  97.2833 151.9287 0001969  68.1159 338.0327 16.11553174    12"
                    ]
                },
                {
                    "noradId": "71640",
                    "tle": [
                        "1 71640C 26025J   26042.08868056 -.00804530  00000+0 -83367-3 0   428",
                        "2 71640  97.2834 151.9292 0001864  66.1593 343.4354 16.11451243    16"
                    ]
                },
                {
                    "noradId": "71639",
                    "tle": [
                        "1 71639C 26025H   26042.04215278 -.00821000  00000+0 -85393-3 0   426",
                        "2 71639  97.2836 151.8777 0001593  47.2833  91.9715 16.11412525    15"
                    ]
                },
                {
                    "noradId": "71638",
                    "tle": [
                        "1 71638C 26025G   26042.08868056 -.00821980  00000+0 -86719-3 0   427",
                        "2 71638  97.2836 151.9289 0001628  50.0740 358.3028 16.11195755    11"
                    ]
                },
                {
                    "noradId": "71637",
                    "tle": [
                        "1 71637C 26025F   26042.04215278 -.00841220  00000+0 -89089-3 0   426",
                        "2 71637  97.2836 151.8771 0001711  52.4358  85.6319 16.11156855    10"
                    ]
                },
                {
                    "noradId": "71636",
                    "tle": [
                        "1 71636C 26025E   26042.08798611 -.00839650  00000+0 -90027-3 0   424",
                        "2 71636  97.2836 151.9276 0001680  55.4274 347.7329 16.10965605    18"
                    ]
                },
                {
                    "noradId": "71633",
                    "tle": [
                        "1 71633C 26025B   26042.08659722 -.00856430  00000+0 -92734-3 0   422",
                        "2 71633  97.2837 151.9258 0001627  50.1569 344.3242 16.10831729    12"
                    ]
                },
                {
                    "noradId": "71635",
                    "tle": [
                        "1 71635C 26025D   26042.08868056 -.00856300  00000+0 -93659-3 0   429",
                        "2 71635  97.2837 151.9278 0001554  77.0342 328.8939 16.10676349    17"
                    ]
                },
                {
                    "noradId": "71634",
                    "tle": [
                        "1 71634C 26025C   26042.05048611 -.00871670  00000+0 -95751-3 0   424",
                        "2 71634  97.2838 151.8852 0001416  55.5269 128.4755 16.10626361    19"
                    ]
                },
                {
                    "noradId": "71632",
                    "tle": [
                        "1 71632C 26025A   26042.08798611 -.00876030  00000+0 -97711-3 0   420",
                        "2 71632  97.2839 151.9265 0001472  46.5819 354.0535 16.10393806    18"
                    ]
                }
            ]
        }
    ],
    "config": {}
}